{"type": "FeatureCollection", "features": [{"type": "Feature", "properties": {"norad_id": 28054, "name": "DMSP 5D-3 F16 (USA 172)", "group": "weather", "lat": 16.049195743228925, "lon": 177.45179831290605, "alt_km": 849.8468759159259, "timestamp": "2025-12-03T10:52:57.089815+00:00", "meta": {"OBJECT_NAME": "DMSP 5D-3 F16 (USA 172)", "OBJECT_ID": "2003-048A", "EPOCH": "2025-12-03T03:44:11.563296", "MEAN_MOTION": 14.14418638, "ECCENTRICITY": 0.0006899, "INCLINATION": 99.0053, "RA_OF_ASC_NODE": 354.537, "ARG_OF_PERICENTER": 350.0143, "MEAN_ANOMALY": 98.3447, "EPHEMERIS_TYPE": 0, "CLASSIFICATION_TYPE": "U", "NORAD_CAT_ID": 28054, "ELEMENT_SET_NO": 999, "REV_AT_EPOCH": 14177, "BSTAR": 0.00013205, "MEAN_MOTION_DOT": 2.07e-06, "MEAN_MOTION_DDOT": 0}, "tle": {"line1": "1 28054U 03048A   25337.15568939  .00000207  00000+0  13205-3 0  9992", "line2": "2 28054  99.0053 354.5370 0006899 350.0143  98.3447 14.14418638141777"}}, "geometry": {"type": "Point", "coordinates": [177.45179831290605, 16.049195743228925]}}, {"type": "Feature", "properties": {"norad_id": 28912, "name": "METEOSAT-9 (MSG-2)", "group": "weather", "lat": -6.348786691951224, "lon": -78.95044426261927, "alt_km": 35774.033682873276, "timestamp": "2025-12-03T10:52:57.089873+00:00", "meta": {"OBJECT_NAME": "METEOSAT-9 (MSG-2)", "OBJECT_ID": "2005-049B", "EPOCH": "2025-12-02T20:50:55.807008", "MEAN_MOTION": 1.00271253, "ECCENTRICITY": 0.0004004, "INCLINATION": 8.9157, "RA_OF_ASC_NODE": 56.0648, "ARG_OF_PERICENTER": 185.08, "MEAN_ANOMALY": 189.154, "EPHEMERIS_TYPE": 0, "CLASSIFICATION_TYPE": "U", "NORAD_CAT_ID": 28912, "ELEMENT_SET_NO": 999, "REV_AT_EPOCH": 503, "BSTAR": 0, "MEAN_MOTION_DOT": 1.39e-06, "MEAN_MOTION_DDOT": 0}, "tle": {"line1": "1 28912U 05049B   25336.86870147  .00000139  00000+0  00000+0 0  9991", "line2": "2 28912   8.9157  56.0648 0004004 185.0800 189.1540  1.00271253  5030"}}, "geometry": {"type": "Point", "coordinates": [-78.95044426261927, -6.348786691951224]}}, {"type": "Feature", "properties": {"norad_id": 29522, "name": "DMSP 5D-3 F17 (USA 191)", "group": "weather", "lat": 80.95169345799242, "lon": -91.96454031080309, "alt_km": 841.5805425477038, "timestamp": "2025-12-03T10:52:57.089891+00:00", "meta": {"OBJECT_NAME": "DMSP 5D-3 F17 (USA 191)", "OBJECT_ID": "2006-050A", "EPOCH": "2025-12-03T03:40:49.783872", "MEAN_MOTION": 14.1491278, "ECCENTRICITY": 0.0009153, "INCLINATION": 98.7394, "RA_OF_ASC_NODE": 342.742, "ARG_OF_PERICENTER": 254.8852, "MEAN_ANOMALY": 105.1309, "EPHEMERIS_TYPE": 0, "CLASSIFICATION_TYPE": "U", "NORAD_CAT_ID": 29522, "ELEMENT_SET_NO": 999, "REV_AT_EPOCH": 98469, "BSTAR": 0.00015337, "MEAN_MOTION_DOT": 2.53e-06, "MEAN_MOTION_DDOT": 0}, "tle": {"line1": "1 29522U 06050A   25337.15335398  .00000253  00000+0  15337-3 0  9999", "line2": "2 29522  98.7394 342.7420 0009153 254.8852 105.1309 14.14912780984698"}}, "geometry": {"type": "Point", "coordinates": [-91.96454031080309, 80.95169345799242]}}, {"type": "Feature", "properties": {"norad_id": 32958, "name": "FENGYUN 3A", "group": "weather", "lat": 8.165841104374886, "lon": -84.07805042485829, "alt_km": 823.5398685203509, "timestamp": "2025-12-03T10:52:57.089905+00:00", "meta": {"OBJECT_NAME": "FENGYUN 3A", "OBJECT_ID": "2008-026A", "EPOCH": "2025-12-03T02:23:07.410048", "MEAN_MOTION": 14.19509402, "ECCENTRICITY": 0.0008366, "INCLINATION": 98.6683, "RA_OF_ASC_NODE": 276.8298, "ARG_OF_PERICENTER": 340.1744, "MEAN_ANOMALY": 19.9106, "EPHEMERIS_TYPE": 0, "CLASSIFICATION_TYPE": "U", "NORAD_CAT_ID": 32958, "ELEMENT_SET_NO": 999, "REV_AT_EPOCH": 90758, "BSTAR": 9.6774e-05, "MEAN_MOTION_DOT": 1.61e-06, "MEAN_MOTION_DDOT": 0}, "tle": {"line1": "1 32958U 08026A   25337.09939132  .00000161  00000+0  96774-4 0  9993", "line2": "2 32958  98.6683 276.8298 0008366 340.1744  19.9106 14.19509402907587"}}, "geometry": {"type": "Point", "coordinates": [-84.07805042485829, 8.165841104374886]}}, {"type": "Feature", "properties": {"norad_id": 35491, "name": "GOES 14", "group": "weather", "lat": 0.7881796185092521, "lon": 127.3675925133312, "alt_km": 35791.323802331586, "timestamp": "2025-12-03T10:52:57.089920+00:00", "meta": {"OBJECT_NAME": "GOES 14", "OBJECT_ID": "2009-033A", "EPOCH": "2025-12-03T02:57:59.985216", "MEAN_MOTION": 1.00272653, "ECCENTRICITY": 0.0004173, "INCLINATION": 1.1722, "RA_OF_ASC_NODE": 85.5194, "ARG_OF_PERICENTER": 150.1599, "MEAN_ANOMALY": 132.6995, "EPHEMERIS_TYPE": 0, "CLASSIFICATION_TYPE": "U", "NORAD_CAT_ID": 35491, "ELEMENT_SET_NO": 999, "REV_AT_EPOCH": 462, "BSTAR": 0, "MEAN_MOTION_DOT": -4.9e-07, "MEAN_MOTION_DDOT": 0}, "tle": {"line1": "1 35491U 09033A   25337.12361094 -.00000049  00000+0  00000+0 0  9995", "line2": "2 35491   1.1722  85.5194 0004173 150.1599 132.6995  1.00272653  4627"}}, "geometry": {"type": "Point", "coordinates": [127.3675925133312, 0.7881796185092521]}}, {"type": "Feature", "properties": {"norad_id": 35951, "name": "DMSP 5D-3 F18 (USA 210)", "group": "weather", "lat": -39.58630351523669, "lon": -38.669441764713824, "alt_km": 854.8054168610606, "timestamp": "2025-12-03T10:52:57.089933+00:00", "meta": {"OBJECT_NAME": "DMSP 5D-3 F18 (USA 210)", "OBJECT_ID": "2009-057A", "EPOCH": "2025-12-03T04:16:57.859680", "MEAN_MOTION": 14.14760198, "ECCENTRICITY": 0.0012112, "INCLINATION": 98.8823, "RA_OF_ASC_NODE": 313.6276, "ARG_OF_PERICENTER": 87.5959, "MEAN_ANOMALY": 272.6601, "EPHEMERIS_TYPE": 0, "CLASSIFICATION_TYPE": "U", "NORAD_CAT_ID": 35951, "ELEMENT_SET_NO": 999, "REV_AT_EPOCH": 83187, "BSTAR": 0.00020873, "MEAN_MOTION_DOT": 3.58e-06, "MEAN_MOTION_DDOT": 0}, "tle": {"line1": "1 35951U 09057A   25337.17844745  .00000358  00000+0  20873-3 0  9992", "line2": "2 35951  98.8823 313.6276 0012112  87.5959 272.6601 14.14760198831873"}}, "geometry": {"type": "Point", "coordinates": [-38.669441764713824, -39.58630351523669]}}, {"type": "Feature", "properties": {"norad_id": 36411, "name": "EWS-G2 (GOES 15)", "group": "weather", "lat": -0.4187671927797599, "lon": -62.70004617080279, "alt_km": 35768.44819697717, "timestamp": "2025-12-03T10:52:57.089947+00:00", "meta": {"OBJECT_NAME": "EWS-G2 (GOES 15)", "OBJECT_ID": "2010-008A", "EPOCH": "2025-12-03T00:20:58.180128", "MEAN_MOTION": 1.00267636, "ECCENTRICITY": 0.0005949, "INCLINATION": 0.7877, "RA_OF_ASC_NODE": 86.0559, "ARG_OF_PERICENTER": 169.5873, "MEAN_ANOMALY": 243.2159, "EPHEMERIS_TYPE": 0, "CLASSIFICATION_TYPE": "U", "NORAD_CAT_ID": 36411, "ELEMENT_SET_NO": 999, "REV_AT_EPOCH": 5767, "BSTAR": 0, "MEAN_MOTION_DOT": 5.7e-07, "MEAN_MOTION_DDOT": 0}, "tle": {"line1": "1 36411U 10008A   25337.01456227  .00000057  00000+0  00000+0 0  9991", "line2": "2 36411   0.7877  86.0559 0005949 169.5873 243.2159  1.00267636 57677"}}, "geometry": {"type": "Point", "coordinates": [-62.70004617080279, -0.4187671927797599]}}, {"type": "Feature", "properties": {"norad_id": 36744, "name": "COMS 1", "group": "weather", "lat": -4.136974272696015, "lon": 3.9852879421307406, "alt_km": 35788.16801725294, "timestamp": "2025-12-03T10:52:57.089960+00:00", "meta": {"OBJECT_NAME": "COMS 1", "OBJECT_ID": "2010-032A", "EPOCH": "2025-12-02T15:57:07.381728", "MEAN_MOTION": 1.00270136, "ECCENTRICITY": 0.00010793, "INCLINATION": 4.3152, "RA_OF_ASC_NODE": 78.1083, "ARG_OF_PERICENTER": 183.7473, "MEAN_ANOMALY": 177.3637, "EPHEMERIS_TYPE": 0, "CLASSIFICATION_TYPE": "U", "NORAD_CAT_ID": 36744, "ELEMENT_SET_NO": 999, "REV_AT_EPOCH": 4912, "BSTAR": 0, "MEAN_MOTION_DOT": -3.25e-06, "MEAN_MOTION_DDOT": 0}, "tle": {"line1": "1 36744U 10032A   25336.66466877 -.00000325  00000+0  00000+0 0  9998", "line2": "2 36744   4.3152  78.1083 0001079 183.7473 177.3637  1.00270136 49128"}}, "geometry": {"type": "Point", "coordinates": [3.9852879421307406, -4.136974272696015]}}, {"type": "Feature", "properties": {"norad_id": 37214, "name": "FENGYUN 3B", "group": "weather", "lat": -73.84878114900391, "lon": 50.51074840178396, "alt_km": 853.2174047242688, "timestamp": "2025-12-03T10:52:57.089972+00:00", "meta": {"OBJECT_NAME": "FENGYUN 3B", "OBJECT_ID": "2010-059A", "EPOCH": "2025-12-03T04:51:36.791424", "MEAN_MOTION": 14.14785376, "ECCENTRICITY": 0.0022453, "INCLINATION": 98.9922, "RA_OF_ASC_NODE": 17.1127, "ARG_OF_PERICENTER": 24.6258, "MEAN_ANOMALY": 61.796, "EPHEMERIS_TYPE": 0, "CLASSIFICATION_TYPE": "U", "NORAD_CAT_ID": 37214, "ELEMENT_SET_NO": 999, "REV_AT_EPOCH": 77971, "BSTAR": 9.3694e-05, "MEAN_MOTION_DOT": 1.36e-06, "MEAN_MOTION_DDOT": 0}, "tle": {"line1": "1 37214U 10059A   25337.20250916  .00000136  00000+0  93694-4 0  9991", "line2": "2 37214  98.9922  17.1127 0022453  24.6258  61.7960 14.14785376779716"}}, "geometry": {"type": "Point", "coordinates": [50.51074840178396, -73.84878114900391]}}, {"type": "Feature", "properties": {"norad_id": 37849, "name": "SUOMI NPP", "group": "weather", "lat": -32.686296629265236, "lon": -79.43234671315385, "alt_km": 834.4118925005478, "timestamp": "2025-12-03T10:52:57.089983+00:00", "meta": {"OBJECT_NAME": "SUOMI NPP", "OBJECT_ID": "2011-061A", "EPOCH": "2025-12-03T04:16:17.718240", "MEAN_MOTION": 14.19509732, "ECCENTRICITY": 0.0001889, "INCLINATION": 98.7759, "RA_OF_ASC_NODE": 274.6063, "ARG_OF_PERICENTER": 137.1209, "MEAN_ANOMALY": 223.0115, "EPHEMERIS_TYPE": 0, "CLASSIFICATION_TYPE": "U", "NORAD_CAT_ID": 37849, "ELEMENT_SET_NO": 999, "REV_AT_EPOCH": 73063, "BSTAR": 8.8145e-05, "MEAN_MOTION_DOT": 1.42e-06, "MEAN_MOTION_DDOT": 0}, "tle": {"line1": "1 37849U 11061A   25337.17798285  .00000142  00000+0  88145-4 0  9993", "line2": "2 37849  98.7759 274.6063 0001889 137.1209 223.0115 14.19509732730639"}}, "geometry": {"type": "Point", "coordinates": [-79.43234671315385, -32.686296629265236]}}]}